      2.10          N: GNSS NAV DATA                        RINEX VERSION / TYPE
fic2rin                                 10/17/2023 00:18:03 PGM / RUN BY / DATE
                                                            END OF HEADER
2  23 10 16  2  0  0.0 -.541516579688D-03  .477484718431D-11  .000000000000D+00
     .750000000000D+02 -.111187500000D+03  .416481633846D-08  .125659057838D+01
    -.631622970104D-05  .160643990384D-01  .947713851929D-05  .515374561882D+04
     .936000000000D+05  .651925802231D-07 -.334469726841D+00 -.378116965294D-06
     .967879700212D+00  .203562500000D+03 -.133161575130D+01 -.794675958586D-08
    -.377158567311D-09  .100000000000D+01  .228400000000D+04  .000000000000D+00
     .240000000000D+01  .000000000000D+00 -.176951289177D-07  .750000000000D+02
     .864000000000D+05  .400000000000D+01
1  23 10 16  2  0  0.0  .163692515343D-03 -.454747350886D-12  .000000000000D+00
     .740000000000D+02 -.849062500000D+02  .365622372497D-08 -.139341845473D+01
    -.450387597084D-05  .128905583406D-01  .109598040581D-04  .515363497925D+04
     .936000000000D+05  .307336449623D-06 -.232808082397D+00  .178813934326D-06
     .990721644585D+00  .182812500000D+03  .991532333804D+00 -.752924219459D-08
    -.310727228751D-09  .100000000000D+01  .228400000000D+04  .000000000000D+00
     .240000000000D+01  .630000000000D+02  .512227416039D-08  .740000000000D+02
     .864000000000D+05  .400000000000D+01
5  23 10 16  2  0  0.0 -.146661885083D-03 -.147792889038D-11  .000000000000D+00
     .990000000000D+02  .218125000000D+02  .426410618857D-08  .108324453195D+01
     .115856528282D-05  .595895608421D-02  .102519989014D-04  .515374258423D+04
     .936000000000D+05 -.391155481339D-07  .747555078144D+00 -.372529029846D-07
     .968015887644D+00  .190906250000D+03  .123718405135D+01 -.790818655057D-08
     .488591780380D-09  .100000000000D+01  .228400000000D+04  .000000000000D+00
     .240000000000D+01  .000000000000D+00 -.111758708954D-07  .990000000000D+02
     .864000000000D+05  .400000000000D+01
3  23 10 16  2  0  0.0 -.763698481023D-04  .230784280575D-10  .000000000000D+00
     .570000000000D+02  .397187500000D+02  .393373528444D-08 -.259413618766D+01
     .219047069550D-05  .509369350038D-02  .950507819653D-05  .515358054733D+04
     .936000000000D+05 -.540167093277D-07  .795966751736D+00 -.260770320892D-07
     .980969107061D+00  .207437500000D+03  .111788197309D+01 -.760031658369D-08
     .547165648788D-09  .100000000000D+01  .228400000000D+04  .000000000000D+00
     .240000000000D+01  .000000000000D+00  .186264514923D-08  .570000000000D+02
     .864000000000D+05  .400000000000D+01
4  23 10 16  2  0  0.0  .185604672879D-03  .108002495836D-10  .000000000000D+00
     .400000000000D+02 -.224375000000D+02  .480448584041D-08  .447963206940D+00
    -.113807618618D-05  .262005242985D-02  .446848571301D-05  .515360762596D+04
     .936000000000D+05  .447034835815D-07  .187657109691D+01  .353902578354D-07
     .963160513741D+00  .293687500000D+03 -.305817848520D+01 -.829105964163D-08
    -.153577825704D-09  .100000000000D+01  .228400000000D+04  .000000000000D+00
     .240000000000D+01  .000000000000D+00 -.419095158577D-08  .808000000000D+03
     .864000000000D+05  .400000000000D+01
28 23 10 16  4  0  0.0 -.263764522970D-04 -.693489710102D-11  .000000000000D+00
     .214000000000D+03 -.170312500000D+02  .423839083170D-08 -.241715781073D+01
    -.933185219765D-06  .730895670131D-03  .110790133476D-04  .515376879120D+04
     .100800000000D+06 -.372529029846D-08  .285502289354D+01 -.614672899246D-07
     .961887780864D+00  .160812500000D+03  .155458731005D+01 -.783104047998D-08
    -.447875798682D-09  .100000000000D+01  .228400000000D+04  .000000000000D+00
     .240000000000D+01  .000000000000D+00 -.977888703346D-08  .726000000000D+03
     .936000000000D+05  .400000000000D+01
18 23 10 16  4  0  0.0 -.450127758086D-03 -.117097442853D-10  .000000000000D+00
     .159000000000D+03 -.112750000000D+03  .399588073019D-08 -.249784322142D+00
    -.602751970291D-05  .379614916164D-02  .102408230305D-04  .515365895462D+04
     .100800000000D+06  .819563865662D-07 -.233934153348D+00  .745058059692D-08
     .974611199257D+00  .190031250000D+03 -.307497064597D+01 -.782318300983D-08
    -.335371112410D-09  .100000000000D+01  .228400000000D+04  .000000000000D+00
     .240000000000D+01  .000000000000D+00 -.838190317154D-08  .671000000000D+03
     .936000000000D+05  .400000000000D+01
23 23 10 16  4  0  0.0  .833631493151D-04  .579802872380D-11  .000000000000D+00
     .207000000000D+03  .204375000000D+02  .404945439032D-08 -.124776610585D+01
     .112317502499D-05  .376737152692D-02  .102259218693D-04  .515368371391D+04
     .100800000000D+06  .745058059692D-08  .765411476700D+00 -.115483999252D-06
     .975846747683D+00  .194156250000D+03 -.307076638325D+01 -.766889086866D-08
     .518593030053D-09  .100000000000D+01  .228400000000D+04  .000000000000D+00
     .240000000000D+01  .000000000000D+00 -.838190317154D-08  .975000000000D+03
     .936000000000D+05  .400000000000D+01
5  23 10 16  3 59 44.0 -.146672129631D-03 -.147792889038D-11  .000000000000D+00
     .100000000000D+01  .265937500000D+02  .432232289924D-08  .213117327350D+01
     .120140612125D-05  .595883768983D-02  .101365149021D-04  .515374119949D+04
     .100784000000D+06  .558793544769D-07  .747498412012D+00 -.689178705215D-07
     .968019817042D+00  .187625000000D+03  .123705951899D+01 -.782139722116D-08
     .497163566001D-09  .100000000000D+01  .228400000000D+04  .000000000000D+00
     .240000000000D+01  .000000000000D+00 -.111758708954D-07  .100000000000D+01
     .950400000000D+05  .400000000000D+01
30 23 10 16  3 59 44.0 -.478163361549D-03  .375166564481D-11  .000000000000D+00
     .150000000000D+02  .406250000000D+00  .480591447134D-08 -.115118623797D+01
    -.223517417908D-07  .658213160932D-02  .109579414129D-04  .515375537872D+04
     .100784000000D+06  .201165676117D-06  .289467594639D+01  .130385160446D-07
     .935898312653D+00  .151250000000D+03 -.254922253406D+01 -.809105131048D-08
    -.336799743347D-09  .100000000000D+01  .228400000000D+04  .000000000000D+00
     .240000000000D+01  .000000000000D+00  .372529029846D-08  .150000000000D+02
     .952200000000D+05  .400000000000D+01
26 23 10 16  3 59 44.0  .222924631089D-03 -.227373675443D-11  .000000000000D+00
     .100000000000D+01  .118625000000D+03  .504913888833D-08 -.266704816078D+01
     .593438744545D-05  .834963913076D-02  .880286097527D-05  .515377362061D+04
     .100784000000D+06 -.391155481339D-07 -.242006757380D+01 -.171363353729D-06
     .932955982093D+00  .198281250000D+03  .478169385834D+00 -.824462913618D-08
     .418588864478D-09  .100000000000D+01  .228400000000D+04  .000000000000D+00
     .240000000000D+01  .000000000000D+00  .698491930962D-08  .100000000000D+01
     .953400000000D+05  .400000000000D+01
5  23 10 16  5 59 44.0 -.146682374179D-03 -.147792889038D-11  .000000000000D+00
     .350000000000D+02  .328750000000D+02  .432053711057D-08 -.310196314202D+01
     .170990824699D-05  .595811067615D-02  .997819006443D-05  .515374286270D+04
     .107984000000D+06  .521540641785D-07  .747442453933D+00 -.931322574615D-08
     .968023450931D+00  .189968750000D+03  .123714807527D+01 -.778103839720D-08
     .477519890620D-09  .100000000000D+01  .228400000000D+04  .000000000000D+00
     .240000000000D+01  .000000000000D+00 -.111758708954D-07  .350000000000D+02
     .100800000000D+06  .400000000000D+01
30 23 10 16  5 59 44.0 -.478136818856D-03  .375166564481D-11  .000000000000D+00
     .230000000000D+02 -.578125000000D+01  .481448625696D-08 -.100942295440D+00
    -.234693288803D-06  .658247980755D-02  .109430402517D-04  .515375672913D+04
     .107984000000D+06  .502914190292D-07  .289461720292D+01  .111758708954D-06
     .935895151287D+00  .155906250000D+03 -.254933441072D+01 -.823891461244D-08
    -.360014996070D-09  .100000000000D+01  .228400000000D+04  .000000000000D+00
     .240000000000D+01  .000000000000D+00  .372529029846D-08  .230000000000D+02
     .100800000000D+06  .400000000000D+01
